NORAD_CAT_ID,OBJECT_NAME,OBJECT_TYPE,EPOCH,MEAN_MOTION,ECCENTRICITY,INCLINATION,RA_OF_ASC_NODE,ARG_OF_PERICENTER,MEAN_ANOMALY,BSTAR,MEAN_MOTION_DOT,MEAN_MOTION_DDOT,TLE_LINE0,TLE_LINE1,TLE_LINE2,SEMIMAJOR_AXIS,PERIOD,APOGEE,PERIGEE,DECAYED
49459.0,STARLINK-3141,PAYLOAD,2022-08-04 12:15:30,15.08837131,0.0001817,53.2132,354.217,78.4469,281.6727,0.00010515,1.386e-05,0.0,0 STARLINK-3141,1 49459U 21104BD  22216.51076993  .00001386  00000-0  10515-3 0  9995,2 49459  53.2132 354.2170 0001817  78.4469 281.6727 15.08837131 40538,6917.889,95.438,541.011,538.497,0.0
49459.0,STARLINK-3141,PAYLOAD,2022-08-04 18:37:03,15.08833404,0.0001545,53.2181,353.0304,76.8835,283.233,4.6867e-06,-2.13e-06,0.0,0 STARLINK-3141,1 49459U 21104BD  22216.77573635 -.00000213  00000-0  46867-5 0  9998,2 49459  53.2181 353.0304 0001545  76.8835 283.2330 15.08833404 41645,6917.901,95.438,540.8340000000002,538.697,0.0
49459.0,STARLINK-3141,PAYLOAD,2022-08-05 08:55:31,15.0884184,0.0001541999999999,53.218,350.3541,76.7112,283.4052,1.7048e-05,-1.7e-07,0.0,0 STARLINK-3141,1 49459U 21104BD  22217.37189114 -.00000017  00000-0  17048-4 0  9990,2 49459  53.2180 350.3541 0001542  76.7112 283.4052 15.08841840 41737,6917.875,95.437,540.807,538.673,0.0
49459.0,STARLINK-3141,PAYLOAD,2022-08-05 12:06:17,15.08843285,0.000155,53.218,349.7595,76.7834,283.3331,2.7389e-05,1.48e-06,0.0,0 STARLINK-3141,1 49459U 21104BD  22217.50436960  .00000148  00000-0  27389-4 0  9992,2 49459  53.2180 349.7595 0001550  76.7834 283.3331 15.08843285 40685,6917.87,95.437,540.808,538.663,0.0
49459.0,STARLINK-3141,PAYLOAD,2022-08-06 11:57:04,15.08833557,0.000148,53.2178,345.2988,82.8165,277.2995,3.2697e-06,-2.36e-06,0.0,0 STARLINK-3141,1 49459U 21104BD  22218.49797399 -.00000236  00000-0  32697-5 0  9995,2 49459  53.2178 345.2988 0001480  82.8165 277.2995 15.08833557 41901,6917.9,95.438,540.789,538.741,0.0
49459.0,STARLINK-3141,PAYLOAD,2022-08-06 18:18:37,15.08825443,0.0001771999999999,53.218,344.1099,86.9123,273.2072,0.00014826,2.071e-05,0.0,0 STARLINK-3141,1 49459U 21104BD  22218.76293531  .00002071  00000-0  14826-3 0  9994,2 49459  53.2180 344.1099 0001772  86.9123 273.2072 15.08825443 40870,6917.925,95.438,541.016,538.564,0.0
49459.0,STARLINK-3141,PAYLOAD,2022-08-07 13:23:15,15.08830894,0.0001404,53.2183,340.5421,71.9572,288.1573,-6.0984e-05,-1.258e-05,0.0,0 STARLINK-3141,1 49459U 21104BD  22219.55782050 -.00001258  00000-0 -60984-4 0  9996,2 49459  53.2183 340.5421 0001404  71.9572 288.1573 15.08830894 40996,6917.908,95.438,540.744,538.802,0.0
49459.0,STARLINK-3141,PAYLOAD,2022-08-07 14:58:38,15.08832245,0.0001404,53.2183,340.2447,72.2442,287.8704,-4.9025e-05,-1.068e-05,0.0,0 STARLINK-3141,1 49459U 21104BD  22219.62405948 -.00001068  00000-0 -49025-4 0  9994,2 49459  53.2183 340.2447 0001404  72.2442 287.8704 15.08832245 42076,6917.904,95.438,540.74,538.798,0.0
49459.0,STARLINK-3141,PAYLOAD,2022-08-08 11:38:38,15.08841482,0.0001356,53.2182,336.3791,65.9139,294.1995,0.00011983,1.62e-05,0.0,0 STARLINK-3141,1 49459U 21104BD  22220.48516929  .00001620  00000-0  11983-3 0  9995,2 49459  53.2182 336.3791 0001356  65.9139 294.1995 15.08841482 41133,6917.876,95.437,540.679,538.803,0.0
49459.0,STARLINK-3141,PAYLOAD,2022-08-08 16:24:47,15.08830294,0.0001298,53.2182,335.4873,34.4314,325.6762,0.00038764,5.885e-05,0.0,0 STARLINK-3141,1 49459U 21104BD  22220.68388821  .00005885  00000-0  38764-3 0  9998,2 49459  53.2182 335.4873 0001298  34.4314 325.6762 15.08830294 41169,6917.91,95.438,540.673,538.877,0.0
49459.0,STARLINK-3141,PAYLOAD,2022-08-09 00:21:42,15.08854243,0.0001323,53.2182,334.0004,67.1724,292.9407,0.00013453,1.855e-05,0.0,0 STARLINK-3141,1 49459U 21104BD  22221.01507850  .00001855  00000-0  13453-3 0  9992,2 49459  53.2182 334.0004 0001323  67.1724 292.9407 15.08854243 42283,6917.837,95.437,540.617,538.7869999999998,0.0
49459.0,STARLINK-3141,PAYLOAD,2022-08-09 09:54:02,15.08839226,0.0001323,53.2184,332.2163,72.2238,287.8899,0.00011629,1.563e-05,0.0,0 STARLINK-3141,1 49459U 21104BD  22221.41252708  .00001563  00000-0  11629-3 0  9994,2 49459  53.2184 332.2163 0001323  72.2238 287.8899 15.08839226 42347,6917.8830000000025,95.438,540.663,538.8330000000002,0.0
49459.0,STARLINK-3141,PAYLOAD,2022-08-09 11:29:26,15.08825202,0.0001824,53.218,331.9168,97.772,262.3479,-7.634e-06,-4.1e-06,0.0,0 STARLINK-3141,1 49459U 21104BD  22221.47877890 -.00000410  00000-0 -76340-5 0  9990,2 49459  53.2180 331.9168 0001824  97.7720 262.3479 15.08825202 41281,6917.926,95.438,541.052,538.529,0.0
49459.0,STARLINK-3141,PAYLOAD,2022-08-09 16:15:35,15.08826179,0.0001425,53.2185,331.0263,70.7151,289.3995,1.3572e-05,-7.2e-07,0.0,0 STARLINK-3141,1 49459U 21104BD  22221.67749966 -.00000072  00000-0  13572-4 0  9994,2 49459  53.2185 331.0263 0001425  70.7151 289.3995 15.08826179 42387,6917.9230000000025,95.438,540.773,538.802,0.0
49459.0,STARLINK-3141,PAYLOAD,2022-08-10 09:44:50,15.08835804,0.0001189,53.2169,327.7539,52.0605,308.0495,-9.5126e-06,-4.39e-06,0.0,0 STARLINK-3141,1 49459U 21104BD  22222.40613583 -.00000439  00000-0 -95126-5 0  9995,2 49459  53.2169 327.7539 0001189  52.0605 308.0495 15.08835804 41424,6917.893,95.438,540.581,538.936,0.0
49459.0,STARLINK-3141,PAYLOAD,2022-08-10 16:06:22,15.08843647,0.0001395999999999,53.2179,326.5661,70.4399,289.6744,-5.312799999999999e-06,-3.73e-06,0.0,0 STARLINK-3141,1 49459U 21104BD  22222.67109121 -.00000373  00000-0 -53128-5 0  9995,2 49459  53.2179 326.5661 0001396  70.4399 289.6744 15.08843647 41461,6917.869000000002,95.437,540.7,538.769,0.0
49459.0,STARLINK-3141,PAYLOAD,2022-08-11 12:46:24,15.08784449,0.0002024,53.2192,322.7019,84.023,276.0993,0.0006552,0.00010139,0.0,0 STARLINK-3141,1 49459U 21104BD  22223.53222876  .00010139  00000-0  65520-3 0  9990,2 49459  53.2192 322.7019 0002024  84.0230 276.0993 15.08784449 41599,6918.05,95.441,541.315,538.515,0.0
49459.0,STARLINK-3141,PAYLOAD,2022-08-12 09:26:24,15.0883889,0.0001561,53.2177,318.8352,66.8076,293.308,4.755100000000001e-05,4.69e-06,0.0,0 STARLINK-3141,1 49459U 21104BD  22224.39333696  .00000469  00000-0  47551-4 0  9998,2 49459  53.2177 318.8352 0001561  66.8076 293.3080 15.08838890 42791,6917.884,95.438,540.8290000000002,538.669,0.0
49459.0,STARLINK-3141,PAYLOAD,2022-08-12 12:37:10,15.08837753,0.0001541,53.2176,318.2404,67.5878,292.5277,3.394e-05,2.52e-06,0.0,0 STARLINK-3141,1 49459U 21104BD  22224.52581805  .00000252  00000-0  33940-4 0  9997,2 49459  53.2176 318.2404 0001541  67.5878 292.5277 15.08837753 41748,6917.887,95.438,540.818,538.686,0.0
49459.0,STARLINK-3141,PAYLOAD,2022-08-12 15:47:56,15.08839424,0.0001529,53.2176,317.6455,68.7607,291.3548,4.502e-05,4.29e-06,0.0,0 STARLINK-3141,1 49459U 21104BD  22224.65829667  .00000429  00000-0  45020-4 0  9990,2 49459  53.2176 317.6455 0001529  68.7607 291.3548 15.08839424 41763,6917.882,95.438,540.805,538.689,0.0
49459.0,STARLINK-3141,PAYLOAD,2022-08-13 12:27:57,15.08839102,0.00014,53.2173,313.778,71.8558,288.2586,3.5751e-05,2.81e-06,0.0,0 STARLINK-3141,1 49459U 21104BD  22225.51941795  .00000281  00000-0  35751-4 0  9999,2 49459  53.2173 313.7780 0001400  71.8558 288.2586 15.08839102 42969,6917.8830000000025,95.438,540.717,538.78,0.0
49459.0,STARLINK-3141,PAYLOAD,2022-08-13 15:38:44,15.08838146,0.0001419,53.2173,313.1835,70.9549,289.1596,2.7765e-05,1.54e-06,0.0,0 STARLINK-3141,1 49459U 21104BD  22225.65189887  .00000154  00000-0  27765-4 0  9995,2 49459  53.2173 313.1835 0001419  70.9549 289.1596 15.08838146 41916,6917.886,95.438,540.7330000000002,538.769,0.0
49459.0,STARLINK-3141,PAYLOAD,2022-08-14 05:57:12,15.08830548,0.0001501,53.2172,310.5079,72.2138,287.9018,-1.0683e-05,-4.58e-06,0.0,0 STARLINK-3141,1 49459U 21104BD  22226.24806629 -.00000458  00000-0 -10683-4 0  9991,2 49459  53.2172 310.5079 0001501  72.2138 287.9018 15.08830548 43079,6917.909000000002,95.438,540.813,538.736,0.0
49459.0,STARLINK-3141,PAYLOAD,2022-08-14 12:18:45,15.08831495,0.0001495,53.2175,309.3186,74.8632,285.2525,-5.0512e-06,-3.68e-06,0.0,0 STARLINK-3141,1 49459U 21104BD  22226.51302657 -.00000368  00000-0 -50512-5 0  9999,2 49459  53.2175 309.3186 0001495  74.8632 285.2525 15.08831495 42048,6917.906,95.438,540.806,538.737,0.0
49459.0,STARLINK-3141,PAYLOAD,2022-08-14 15:29:31,15.08832787,0.0001495,53.2174,308.724,72.7715,287.344,4.5473000000000005e-06,-2.16e-06,0.0,0 STARLINK-3141,1 49459U 21104BD  22226.64550606 -.00000216  00000-0  45473-5 0  9993,2 49459  53.2174 308.7240 0001495  72.7715 287.3440 15.08832787 42066,6917.901999999999,95.438,540.802,538.7330000000002,0.0
49459.0,STARLINK-3141,PAYLOAD,2022-08-15 07:23:22,15.08837529,0.0001519,53.2174,305.7502,71.7732,288.3425,7.7152e-05,9.4e-06,0.0,0 STARLINK-3141,1 49459U 21104BD  22227.30790186  .00000940  00000-0  77152-4 0  9997,2 49459  53.2174 305.7502 0001519  71.7732 288.3425 15.08837529 43232,6917.888000000001,95.438,540.804,538.702,0.0
49459.0,STARLINK-3141,PAYLOAD,2022-08-15 08:58:45,15.08838787,0.000153,53.2175,305.4531,72.1954,287.9205,8.9299e-05,1.133e-05,0.0,0 STARLINK-3141,1 49459U 21104BD  22227.37414092  .00001133  00000-0  89299-4 0  9993,2 49459  53.2175 305.4531 0001530  72.1954 287.9205 15.08838787 42176,6917.884,95.438,540.808,538.691,0.0
49459.0,STARLINK-3141,PAYLOAD,2022-08-15 16:55:42,15.08831529,0.0001506,53.2172,303.9659,69.9928,290.1227,1.9492e-05,2.2e-07,0.0,0 STARLINK-3141,1 49459U 21104BD  22227.70534894  .00000022  00000-0  19492-4 0  9997,2 49459  53.2172 303.9659 0001506  69.9928 290.1227 15.08831529 43296,6917.906,95.438,540.813,538.729,0.0
49459.0,STARLINK-3141,PAYLOAD,2022-08-16 12:00:19,15.08835507,0.0001518,53.217,300.398,68.5742,291.5412,8.989200000000001e-05,1.143e-05,0.0,0 STARLINK-3141,1 49459U 21104BD  22228.50022918  .00001143  00000-0  89892-4 0  9991,2 49459  53.2170 300.3980 0001518  68.5742 291.5412 15.08835507 42340,6917.894,95.438,540.809,538.7090000000002,0.0
